NORAD_CAT_ID,OBJECT_NAME,OBJECT_TYPE,EPOCH,MEAN_MOTION,ECCENTRICITY,INCLINATION,RA_OF_ASC_NODE,ARG_OF_PERICENTER,MEAN_ANOMALY,BSTAR,MEAN_MOTION_DOT,MEAN_MOTION_DDOT,TLE_LINE0,TLE_LINE1,TLE_LINE2,SEMIMAJOR_AXIS,PERIOD,APOGEE,PERIGEE,DECAYED
53575.0,STARLINK-4551,PAYLOAD,2023-11-08 03:36:16,15.08845317,0.0001209,53.217,281.1066,70.9888,289.1235,-5.502e-05,-1.164e-05,0.0,0 STARLINK-4551,1 53575U 22101BA  23312.15019624 -.00001164  00000-0 -55020-4 0  9990,2 53575  53.2170 281.1066 0001209  70.9888 289.1235 15.08845317 67747,6917.864,95.437,540.566,538.893,0.0
53575.0,STARLINK-4551,PAYLOAD,2023-11-08 05:11:39,15.08851283,0.0001285,53.218,280.8139,101.9314,258.1823,3.5151e-05,2.72e-06,0.0,0 STARLINK-4551,1 53575U 22101BA  23312.21643305  .00000272  00000-0  35151-4 0  9996,2 53575  53.2180 280.8139 0001285 101.9314 258.1823 15.08851283 67757,6917.846,95.437,540.6,538.822,0.0
53575.0,STARLINK-4551,PAYLOAD,2023-11-09 03:27:04,15.08840776,0.0001218,53.2182,276.6529,118.0794,242.0322,0.00036638,5.548e-05,0.0,0 STARLINK-4551,1 53575U 22101BA  23313.14380448  .00005548  00000-0  36638-3 0  9996,2 53575  53.2182 276.6529 0001218 118.0794 242.0322 15.08840776 67898,6917.878,95.438,540.586,538.9,0.0
53575.0,STARLINK-4551,PAYLOAD,2023-11-09 06:37:50,15.08847396,8.63e-05,53.2174,276.0544,99.1581,260.9509,0.00038886,5.908e-05,0.0,0 STARLINK-4551,1 53575U 22101BA  23313.27627990  .00005908  00000-0  38886-3 0  9993,2 53575  53.2174 276.0544 0000863  99.1581 260.9509 15.08847396 68609,6917.858,95.437,540.32,539.126,0.0
53575.0,STARLINK-4551,PAYLOAD,2023-11-09 17:45:32,15.08838858,0.0001111,53.2176,273.9721,88.1832,271.9288,5.0781e-05,5.2e-06,0.0,0 STARLINK-4551,1 53575U 22101BA  23313.73996514  .00000520  00000-0  50781-4 0  9999,2 53575  53.2176 273.9721 0001111  88.1832 271.9288 15.08838858 67987,6917.884,95.438,540.517,538.98,0.0
53575.0,STARLINK-4551,PAYLOAD,2023-11-10 06:28:37,15.08852374,0.0001112,53.2171,271.5931,86.6773,273.4347,6.0874e-05,6.81e-06,0.0,0 STARLINK-4551,1 53575U 22101BA  23314.26987655  .00000681  00000-0  60874-4 0  9996,2 53575  53.2171 271.5931 0001112  86.6773 273.4347 15.08852374 68069,6917.843,95.437,540.477,538.938,0.0
53575.0,STARLINK-4551,PAYLOAD,2023-11-10 14:25:33,15.08840032,0.0001351,53.2174,270.1061,79.8317,280.2827,-9.6621e-05,-1.825e-05,0.0,0 STARLINK-4551,1 53575U 22101BA  23314.60108337 -.00001825  00000-0 -96621-4 0  9998,2 53575  53.2174 270.1061 0001351  79.8317 280.2827 15.08840032 68803,6917.88,95.438,540.68,538.811,0.0
53575.0,STARLINK-4551,PAYLOAD,2023-11-11 06:19:25,15.08845366,0.0001507,53.2189,267.1303,55.1981,304.9153,2.2736e-05,7.4e-07,0.0,0 STARLINK-4551,1 53575U 22101BA  23315.26348725  .00000074  00000-0  22736-4 0  9997,2 53575  53.2189 267.1303 0001507  55.1981 304.9153 15.08845366 68903,6917.864,95.437,540.772,538.686,0.0
53575.0,STARLINK-4551,PAYLOAD,2023-11-11 20:37:53,15.08838246,0.000139,53.2166,264.4564,90.5274,269.5877,0.00010663,1.409e-05,0.0,0 STARLINK-4551,1 53575U 22101BA  23315.85964925  .00001409  00000-0  10663-3 0  9996,2 53575  53.2166 264.4564 0001390  90.5274 269.5877 15.08838246 68307,6917.886,95.438,540.712,538.789,0.0
53575.0,STARLINK-4551,PAYLOAD,2023-11-12 02:59:25,15.08843288,0.0001445,53.2176,263.2686,94.0324,266.0834,0.00012844,1.757e-05,0.0,0 STARLINK-4551,1 53575U 22101BA  23316.12460506  .00001757  00000-0  12844-3 0  9992,2 53575  53.2176 263.2686 0001445  94.0324 266.0834 15.08843288 69034,6917.87,95.437,540.735,538.736,0.0
53575.0,STARLINK-4551,PAYLOAD,2023-11-12 14:07:07,15.08846983,0.0001294,53.2164,261.1863,89.5836,270.5305,4.9634e-05,5.02e-06,0.0,0 STARLINK-4551,1 53575U 22101BA  23316.58828359  .00000502  00000-0  49634-4 0  9991,2 53575  53.2164 261.1863 0001294  89.5836 270.5305 15.08846983 68413,6917.859,95.437,540.619,538.829,0.0
53575.0,STARLINK-4551,PAYLOAD,2023-11-12 20:28:40,15.08841564,0.0001399,53.2164,259.997,83.3107,276.8045,0.0001279,1.748e-05,0.0,0 STARLINK-4551,1 53575U 22101BA  23316.85324623  .00001748  00000-0  12790-3 0  9991,2 53575  53.2164 259.9970 0001399  83.3107 276.8045 15.08841564 69147,6917.876,95.437,540.708,538.773,0.0
53575.0,STARLINK-4551,PAYLOAD,2023-11-13 06:00:58,15.08853107,0.0001345,53.2174,258.2112,93.9929,266.1217,0.00014248,1.981e-05,0.0,0 STARLINK-4551,1 53575U 22101BA  23317.25067780  .00001981  00000-0  14248-3 0  9993,2 53575  53.2174 258.2112 0001345  93.9929 266.1217 15.08853107 69204,6917.84,95.437,540.636,538.775,0.0
53575.0,STARLINK-4551,PAYLOAD,2023-11-14 01:05:36,15.08843471,0.0001791,53.2183,254.6403,118.1067,242.0106,-2.4906e-05,-6.85e-06,0.0,0 STARLINK-4551,1 53575U 22101BA  23318.04556557 -.00000685  00000-0 -24906-4 0  9991,2 53575  53.2183 254.6403 0001791 118.1067 242.0106 15.08843471 68634,6917.87,95.437,540.974,538.496,0.0
53575.0,STARLINK-4551,PAYLOAD,2023-11-14 05:51:46,15.08843167,0.0001739,53.2182,253.748,117.074,243.0429,-9.6105e-06,-4.41e-06,0.0,0 STARLINK-4551,1 53575U 22101BA  23318.24428464 -.00000441  00000-0 -96105-5 0  9999,2 53575  53.2182 253.7480 0001739 117.0740 243.0429 15.08843167 69357,6917.871,95.437,540.939,538.533,0.0
53575.0,STARLINK-4551,PAYLOAD,2023-11-15 00:56:24,15.08833316,0.00015,53.2185,250.1775,112.0421,248.0731,5.339e-06,-2.03e-06,0.0,0 STARLINK-4551,1 53575U 22101BA  23319.03917160 -.00000203  00000-0  53390-5 0  9997,2 53575  53.2185 250.1775 0001500 112.0421 248.0731 15.08833316 68787,6917.901,95.438,540.804,538.728,0.0
53575.0,STARLINK-4551,PAYLOAD,2023-11-15 23:11:48,15.08839946,0.0001568,53.2183,246.0142,110.0867,250.0294,2.8885e-05,1.72e-06,0.0,0 STARLINK-4551,1 53575U 22101BA  23319.96652895  .00000172  00000-0  28885-4 0  9994,2 53575  53.2183 246.0142 0001568 110.0867 250.0294 15.08839946 68921,6917.881,95.438,540.83,538.661,0.0
53575.0,STARLINK-4551,PAYLOAD,2023-11-16 03:57:57,15.0884418,0.0001645,53.2191,245.1266,109.7893,250.3276,9.5817e-05,1.237e-05,0.0,0 STARLINK-4551,1 53575U 22101BA  23320.16524487  .00001237  00000-0  95817-4 0  9995,2 53575  53.2191 245.1266 0001645 109.7893 250.3276 15.08844180 69646,6917.868,95.437,540.871,538.595,0.0
53575.0,STARLINK-4551,PAYLOAD,2023-11-17 03:48:44,15.08837661,0.0001498,53.2186,240.6668,99.3435,260.7727,6.7354e-05,7.84e-06,0.0,0 STARLINK-4551,1 53575U 22101BA  23321.15885245  .00000784  00000-0  67354-4 0  9998,2 53575  53.2186 240.6668 0001498  99.3435 260.7727 15.08837661 69101,6917.888,95.438,540.789,538.716,0.0
53575.0,STARLINK-4551,PAYLOAD,2023-11-17 11:45:40,15.08835355,0.0001489,53.2185,239.1803,98.584,261.5321,4.1216e-05,3.68e-06,0.0,0 STARLINK-4551,1 53575U 22101BA  23321.49005550  .00000368  00000-0  41216-4 0  9995,2 53575  53.2185 239.1803 0001489  98.5840 261.5321 15.08835355 69843,6917.895,95.438,540.79,538.73,0.0
53575.0,STARLINK-4551,PAYLOAD,2023-11-17 22:53:22,15.08849853,0.0001447,53.2186,237.0984,85.8209,274.2949,-0.00012381,-2.258e-05,0.0,0 STARLINK-4551,1 53575U 22101BA  23321.95373380 -.00002258  00000-0 -12381-3 0  9997,2 53575  53.2186 237.0984 0001447  85.8209 274.2949 15.08849853 69916,6917.85,95.437,540.716,538.714,0.0
53575.0,STARLINK-4551,PAYLOAD,2023-11-18 11:36:27,15.08838211,0.0001565,53.2186,234.7202,87.3115,272.8057,4.4597e-05,4.22e-06,0.0,0 STARLINK-4551,1 53575U 22101BA  23322.48365513  .00000422  00000-0  44597-4 0  9999,2 53575  53.2186 234.7202 0001565  87.3115 272.8057 15.08838211 69300,6917.886,95.438,540.834,538.668,0.0
53575.0,STARLINK-4551,PAYLOAD,2023-11-19 11:27:14,15.0884025,0.0001546,53.2186,230.2608,88.9712,271.1457,0.00012241,1.661e-05,0.0,0 STARLINK-4551,1 53575U 22101BA  23323.47725200  .00001661  00000-0  12241-3 0  9998,2 53575  53.2186 230.2608 0001546  88.9712 271.1457 15.08840250 70146,6917.88,95.438,540.814,538.675,0.0
53575.0,STARLINK-4551,PAYLOAD,2023-11-19 22:34:56,15.08844542,0.0001539,53.2187,228.1796,86.9457,273.1711,8.1485e-05,1.009e-05,0.0,0 STARLINK-4551,1 53575U 22101BA  23323.94092876  .00001009  00000-0  81485-4 0  9999,2 53575  53.2187 228.1796 0001539  86.9457 273.1711 15.08844542 70218,6917.867,95.437,540.796,538.667,0.0
53575.0,STARLINK-4551,PAYLOAD,2023-11-20 03:21:05,15.088536,0.0001528,53.2182,227.2863,90.6201,269.4966,8.7556e-05,1.106e-05,0.0,0 STARLINK-4551,1 53575U 22101BA  23324.13964161  .00001106  00000-0  87556-4 0  9999,2 53575  53.2182 227.2863 0001528  90.6201 269.4966 15.08853600 69555,6917.839,95.437,540.761,538.647,0.0
53575.0,STARLINK-4551,PAYLOAD,2023-11-20 11:18:03,15.08821958,0.0001908,53.2189,225.8019,78.3537,281.7669,-0.00010377,-1.938e-05,0.0,0 STARLINK-4551,1 53575U 22101BA  23324.47087080 -.00001938  00000-0 -10377-3 0  9993,2 53575  53.2189 225.8019 0001908  78.3537 281.7669 15.08821958 69600,6917.936,95.439,541.12,538.481,0.0
53575.0,STARLINK-4551,PAYLOAD,2023-11-20 22:25:45,15.08819361,0.0001686,53.2187,223.7202,82.8987,277.2197,-0.00011618,-2.136e-05,0.0,0 STARLINK-4551,1 53575U 22101BA  23324.93455673 -.00002136  00000-0 -11618-3 0  9991,2 53575  53.2187 223.7202 0001686  82.8987 277.2197 15.08819361 70367,6917.943,95.439,540.975,538.642,0.0
53575.0,STARLINK-4551,PAYLOAD,2023-11-21 00:01:08,15.08822533,0.0001656,53.2181,223.422,87.568,272.5502,-0.00012624,-2.296e-05,0.0,0 STARLINK-4551,1 53575U 22101BA  23325.00079563 -.00002296  00000-0 -12624-3 0  9995,2 53575  53.2181 223.4220 0001656  87.5680 272.5502 15.08822533 70371,6917.934,95.439,540.944,538.653,0.0
53575.0,STARLINK-4551,PAYLOAD,2023-11-21 17:30:22,15.08839064,0.0001546,53.218,220.1503,95.5604,264.5565,1.1951e-05,-9.8e-07,0.0,0 STARLINK-4551,1 53575U 22101BA  23325.72942511 -.00000098  00000-0  11951-4 0  9996,2 53575  53.2180 220.1503 0001546  95.5604 264.5565 15.08839064 69792,6917.883,95.438,540.818,538.679,0.0
53575.0,STARLINK-4551,PAYLOAD,2023-11-21 20:41:08,15.08846567,0.0001633,53.2177,219.5557,94.927,265.1909,6.7828e-05,7.92e-06,0.0,0 STARLINK-4551,1 53575U 22101BA  23325.86190010  .00000792  00000-0  67828-4 0  9994,2 53575  53.2177 219.5557 0001633  94.9270 265.1909 15.08846567 70504,6917.86,95.437,540.855,538.596,0.0
